CCSDS_OMM_VERS = 2.0
CREATION_DATE  = 
ORIGINATOR     = 

OBJECT_NAME    = STARLINK-36810
OBJECT_ID      = 2026-035V
CENTER_NAME    = EARTH
REF_FRAME      = TEME
TIME_SYSTEM    = UTC
MEAN_ELEMENT_THEORY = SGP/SGP4

EPOCH          = 2026-03-10T22:00:03.000096
MEAN_MOTION    = 15.83871347
ECCENTRICITY   = .00013181
INCLINATION    = 97.2675
RA_OF_ASC_NODE = 2.3476
ARG_OF_PERICENTER = 69.4349
MEAN_ANOMALY   = 353.2313

EPHEMERIS_TYPE = 0
CLASSIFICATION_TYPE = U
NORAD_CAT_ID   = 67898
ELEMENT_SET_NO = 999
REV_AT_EPOCH   = 395
BSTAR          = -.72076845E-2
MEAN_MOTION_DOT = -.1390409E-1
MEAN_MOTION_DDOT = 0

CCSDS_OMM_VERS = 2.0
CREATION_DATE  = 
ORIGINATOR     = 

OBJECT_NAME    = STARLINK-36878
OBJECT_ID      = 2026-035W
CENTER_NAME    = EARTH
REF_FRAME      = TEME
TIME_SYSTEM    = UTC
MEAN_ELEMENT_THEORY = SGP/SGP4

EPOCH          = 2026-03-10T22:00:03.000096
MEAN_MOTION    = 15.83795641
ECCENTRICITY   = .00012914
INCLINATION    = 97.2670
RA_OF_ASC_NODE = 2.3512
ARG_OF_PERICENTER = 86.1345
MEAN_ANOMALY   = 345.4558

EPHEMERIS_TYPE = 0
CLASSIFICATION_TYPE = U
NORAD_CAT_ID   = 67899
ELEMENT_SET_NO = 999
REV_AT_EPOCH   = 395
BSTAR          = -.7309948E-2
MEAN_MOTION_DOT = -.1403124E-1
MEAN_MOTION_DDOT = 0

CCSDS_OMM_VERS = 2.0
CREATION_DATE  = 
ORIGINATOR     = 

OBJECT_NAME    = STARLINK-36361
OBJECT_ID      = 2026-035X
CENTER_NAME    = EARTH
REF_FRAME      = TEME
TIME_SYSTEM    = UTC
MEAN_ELEMENT_THEORY = SGP/SGP4

EPOCH          = 2026-03-10T22:00:03.000096
MEAN_MOTION    = 15.83737362
ECCENTRICITY   = .00013806
INCLINATION    = 97.2669
RA_OF_ASC_NODE = 2.3531
ARG_OF_PERICENTER = 88.3014
MEAN_ANOMALY   = 347.8558

EPHEMERIS_TYPE = 0
CLASSIFICATION_TYPE = U
NORAD_CAT_ID   = 67900
ELEMENT_SET_NO = 999
REV_AT_EPOCH   = 395
BSTAR          = -.7407901E-2
MEAN_MOTION_DOT = -.1416089E-1
MEAN_MOTION_DDOT = 0

CCSDS_OMM_VERS = 2.0
CREATION_DATE  = 
ORIGINATOR     = 

OBJECT_NAME    = STARLINK-36336
OBJECT_ID      = 2026-035Y
CENTER_NAME    = EARTH
REF_FRAME      = TEME
TIME_SYSTEM    = UTC
MEAN_ELEMENT_THEORY = SGP/SGP4

EPOCH          = 2026-03-10T22:00:03.000096
MEAN_MOTION    = 15.83533000
ECCENTRICITY   = .00013667
INCLINATION    = 97.2676
RA_OF_ASC_NODE = 2.3602
ARG_OF_PERICENTER = 81.9097
MEAN_ANOMALY   = 8.0259

EPHEMERIS_TYPE = 0
CLASSIFICATION_TYPE = U
NORAD_CAT_ID   = 67901
ELEMENT_SET_NO = 999
REV_AT_EPOCH   = 400
BSTAR          = -.81530769E-2
MEAN_MOTION_DOT = -.1558422E-1
MEAN_MOTION_DDOT = 0

CCSDS_OMM_VERS = 2.0
CREATION_DATE  = 
ORIGINATOR     = 

OBJECT_NAME    = STARLINK-36876
OBJECT_ID      = 2026-035Z
CENTER_NAME    = EARTH
REF_FRAME      = TEME
TIME_SYSTEM    = UTC
MEAN_ELEMENT_THEORY = SGP/SGP4

EPOCH          = 2026-03-10T22:00:03.000096
MEAN_MOTION    = 15.83715578
ECCENTRICITY   = .00012703
INCLINATION    = 97.2676
RA_OF_ASC_NODE = 2.3565
ARG_OF_PERICENTER = 87.2302
MEAN_ANOMALY   = 353.3542

EPHEMERIS_TYPE = 0
CLASSIFICATION_TYPE = U
NORAD_CAT_ID   = 67902
ELEMENT_SET_NO = 999
REV_AT_EPOCH   = 395
BSTAR          = -.7526587E-2
MEAN_MOTION_DOT = -.1463289E-1
MEAN_MOTION_DDOT = 0

CCSDS_OMM_VERS = 2.0
CREATION_DATE  = 
ORIGINATOR     = 

OBJECT_NAME    = STARLINK-36257
OBJECT_ID      = 2026-035AA
CENTER_NAME    = EARTH
REF_FRAME      = TEME
TIME_SYSTEM    = UTC
MEAN_ELEMENT_THEORY = SGP/SGP4

EPOCH          = 2026-03-10T22:00:03.000096
MEAN_MOTION    = 15.83687194
ECCENTRICITY   = .00012934
INCLINATION    = 97.2673
RA_OF_ASC_NODE = 2.3573
ARG_OF_PERICENTER = 72.9094
MEAN_ANOMALY   = 12.1585

EPHEMERIS_TYPE = 0
CLASSIFICATION_TYPE = U
NORAD_CAT_ID   = 67903
ELEMENT_SET_NO = 999
REV_AT_EPOCH   = 400
BSTAR          = -.77847225E-2
MEAN_MOTION_DOT = -.1505859E-1
MEAN_MOTION_DDOT = 0

CCSDS_OMM_VERS = 2.0
CREATION_DATE  = 
ORIGINATOR     = 

OBJECT_NAME    = STARLINK-36814
OBJECT_ID      = 2026-036A
CENTER_NAME    = EARTH
REF_FRAME      = TEME
TIME_SYSTEM    = UTC
MEAN_ELEMENT_THEORY = SGP/SGP4

EPOCH          = 2026-03-10T22:00:03.000096
MEAN_MOTION    = 15.70467970
ECCENTRICITY   = .00017704
INCLINATION    = 42.9995
RA_OF_ASC_NODE = 242.4356
ARG_OF_PERICENTER = 275.1981
MEAN_ANOMALY   = 58.0044

EPHEMERIS_TYPE = 0
CLASSIFICATION_TYPE = U
NORAD_CAT_ID   = 67904
ELEMENT_SET_NO = 999
REV_AT_EPOCH   = 384
BSTAR          = -.16869352E-1
MEAN_MOTION_DOT = -.1893051E-1
MEAN_MOTION_DDOT = 0

CCSDS_OMM_VERS = 2.0
CREATION_DATE  = 
ORIGINATOR     = 

OBJECT_NAME    = STARLINK-36729
OBJECT_ID      = 2026-036B
CENTER_NAME    = EARTH
REF_FRAME      = TEME
TIME_SYSTEM    = UTC
MEAN_ELEMENT_THEORY = SGP/SGP4

EPOCH          = 2026-03-10T21:51:40.853664
MEAN_MOTION    = 15.80431708
ECCENTRICITY   = .00052885
INCLINATION    = 42.9987
RA_OF_ASC_NODE = 242.3177
ARG_OF_PERICENTER = 244.1374
MEAN_ANOMALY   = 115.8952

EPHEMERIS_TYPE = 0
CLASSIFICATION_TYPE = U
NORAD_CAT_ID   = 67905
ELEMENT_SET_NO = 999
REV_AT_EPOCH   = 386
BSTAR          = -.61145626E-2
MEAN_MOTION_DOT = -.1078938E-1
MEAN_MOTION_DDOT = 0

CCSDS_OMM_VERS = 2.0
CREATION_DATE  = 
ORIGINATOR     = 

OBJECT_NAME    = STARLINK-36763
OBJECT_ID      = 2026-036C
CENTER_NAME    = EARTH
REF_FRAME      = TEME
TIME_SYSTEM    = UTC
MEAN_ELEMENT_THEORY = SGP/SGP4

EPOCH          = 2026-03-10T21:50:20.372064
MEAN_MOTION    = 15.81509246
ECCENTRICITY   = .00030603
INCLINATION    = 42.9984
RA_OF_ASC_NODE = 242.3100
ARG_OF_PERICENTER = 296.6307
MEAN_ANOMALY   = 63.4251

EPHEMERIS_TYPE = 0
CLASSIFICATION_TYPE = U
NORAD_CAT_ID   = 67906
ELEMENT_SET_NO = 999
REV_AT_EPOCH   = 386
BSTAR          = -.19336449E-2
MEAN_MOTION_DOT = -.38133E-2
MEAN_MOTION_DDOT = 0

CCSDS_OMM_VERS = 2.0
CREATION_DATE  = 
ORIGINATOR     = 

OBJECT_NAME    = STARLINK-36742
OBJECT_ID      = 2026-036D
CENTER_NAME    = EARTH
REF_FRAME      = TEME
TIME_SYSTEM    = UTC
MEAN_ELEMENT_THEORY = SGP/SGP4

EPOCH          = 2026-03-10T12:43:42.053376
MEAN_MOTION    = 15.82352005
ECCENTRICITY   = .00039151
INCLINATION    = 42.9985
RA_OF_ASC_NODE = 244.6248
ARG_OF_PERICENTER = 243.6251
MEAN_ANOMALY   = 116.4219

EPHEMERIS_TYPE = 0
CLASSIFICATION_TYPE = U
NORAD_CAT_ID   = 67907
ELEMENT_SET_NO = 999
REV_AT_EPOCH   = 380
BSTAR          = .28999316E-2
MEAN_MOTION_DOT = .670159E-2
MEAN_MOTION_DDOT = 0

CCSDS_OMM_VERS = 2.0
CREATION_DATE  = 
ORIGINATOR     = 

OBJECT_NAME    = STARLINK-36827
OBJECT_ID      = 2026-036E
CENTER_NAME    = EARTH
REF_FRAME      = TEME
TIME_SYSTEM    = UTC
MEAN_ELEMENT_THEORY = SGP/SGP4

EPOCH          = 2026-03-10T20:17:09.377088
MEAN_MOTION    = 15.82126491
ECCENTRICITY   = .00022679
INCLINATION    = 42.9985
RA_OF_ASC_NODE = 242.6849
ARG_OF_PERICENTER = 279.6488
MEAN_ANOMALY   = 80.4127

EPHEMERIS_TYPE = 0
CLASSIFICATION_TYPE = U
NORAD_CAT_ID   = 67908
ELEMENT_SET_NO = 999
REV_AT_EPOCH   = 385
BSTAR          = .97499616E-3
MEAN_MOTION_DOT = .210941E-2
MEAN_MOTION_DDOT = 0

CCSDS_OMM_VERS = 2.0
CREATION_DATE  = 
ORIGINATOR     = 

OBJECT_NAME    = STARLINK-36822
OBJECT_ID      = 2026-036F
CENTER_NAME    = EARTH
REF_FRAME      = TEME
TIME_SYSTEM    = UTC
MEAN_ELEMENT_THEORY = SGP/SGP4

EPOCH          = 2026-03-10T21:47:10.907232
MEAN_MOTION    = 15.81247394
ECCENTRICITY   = .00066984
INCLINATION    = 42.9985
RA_OF_ASC_NODE = 242.2919
ARG_OF_PERICENTER = 295.0388
MEAN_ANOMALY   = 64.9788

EPHEMERIS_TYPE = 0
CLASSIFICATION_TYPE = U
NORAD_CAT_ID   = 67909
ELEMENT_SET_NO = 999
REV_AT_EPOCH   = 386
BSTAR          = -.22477083E-2
MEAN_MOTION_DOT = -.435935E-2
MEAN_MOTION_DDOT = 0

