STARLINK-36810          
1 67898U 26035V   26069.91670139 -.01390409  00000+0 -72077-2 0  9995
2 67898  97.2675   2.3476 0001318  69.4349 353.2313 15.83871347  3950
STARLINK-36878          
1 67899U 26035W   26069.91670139 -.01403124  00000+0 -73099-2 0  9990
2 67899  97.2670   2.3512 0001291  86.1345 345.4558 15.83795641  3955
STARLINK-36361          
1 67900U 26035X   26069.91670139 -.01416089  00000+0 -74079-2 0  9996
2 67900  97.2669   2.3531 0001380  88.3014 347.8558 15.83737362  3955
STARLINK-36336          
1 67901U 26035Y   26069.91670139 -.01558422  00000+0 -81531-2 0  9996
2 67901  97.2676   2.3602 0001366  81.9097   8.0259 15.83533000  4001
STARLINK-36876          
1 67902U 26035Z   26069.91670139 -.01463289  00000+0 -75266-2 0  9991
2 67902  97.2676   2.3565 0001270  87.2302 353.3542 15.83715578  3958
STARLINK-36257          
1 67903U 26035AA  26069.91670139 -.01505859  00000+0 -77847-2 0  9999
2 67903  97.2673   2.3573 0001293  72.9094  12.1585 15.83687194  4005
STARLINK-36814          
1 67904U 26036A   26069.91670139 -.01893051  00000+0 -16869-1 0  9991
2 67904  42.9995 242.4356 0001770 275.1981  58.0044 15.70467970  3842
STARLINK-36729          
1 67905U 26036B   26069.91088951 -.01078938  00000+0 -61146-2 0  9995
2 67905  42.9987 242.3177 0005288 244.1374 115.8952 15.80431708  3867
STARLINK-36763          
1 67906U 26036C   26069.90995801 -.00381330  00000+0 -19336-2 0  9992
2 67906  42.9984 242.3100 0003060 296.6307  63.4251 15.81509246  3869
STARLINK-36742          
1 67907U 26036D   26069.53034784  .00670159  00000+0  28999-2 0  9999
2 67907  42.9985 244.6248 0003915 243.6251 116.4219 15.82352005  3805
STARLINK-36827          
1 67908U 26036E   26069.84524742  .00210941  00000+0  97500-3 0  9996
2 67908  42.9985 242.6849 0002267 279.6488  80.4127 15.82126491  3852
STARLINK-36822          
1 67909U 26036F   26069.90776513 -.00435935  00000+0 -22477-2 0  9993
2 67909  42.9985 242.2919 0006698 295.0388  64.9788 15.81247394  3866
